SENTINEL-6              
1 46984U 20086A   24123.63530241 -.00000041  00000+0  85455-4 0  9999
2 46984  66.0412 305.8817 0007747 270.7479  89.2649 12.80930580160994
